IRIDIUM 119             
1 42959U 17061E   24128.60316714  .00000040  00000+0  73502-5 0  9994
2 42959  86.3983 347.2867 0002211  80.5836 279.5609 14.34210849344365
IRIDIUM 107             
1 42960U 17061F   24128.62220818  .00000141  00000+0  43229-4 0  9991
2 42960  86.3984 347.2954 0002140  79.2695 280.8742 14.34218514344375
IRIDIUM 132             
1 42961U 17061G   24128.62854921  .00000247  00000+0  81283-4 0  9999
2 42961  86.3983 347.2775 0001956  80.3617 279.7800 14.34218802344379
IRIDIUM 136             
1 42962U 17061H   24128.59049549  .00000420  00000+0  14293-3 0  9997
2 42962  86.3984 347.2964 0002447  83.9380 276.2095 14.34219536344387
IRIDIUM 139             
1 42963U 17061J   24128.59683644  .00000064  00000+0  15903-4 0  9992
2 42963  86.3984 347.3432 0001992  79.7985 280.3435 14.34217991344395
IRIDIUM 138             
1 43071U 17083B   24128.51387960 -.00000066  00000+0 -30543-4 0  9992
2 43071  86.3914 283.8010 0002143  87.1205 273.0235 14.34216792333676
